[Satellite]
VERSION=1.1
NAME=IRIDIUM 157
NICKNAME=IRIDIUM 157
TLE1=1 43251U 18030C   22342.58494731  .00000291  00000+0  96960-4 0  9996
TLE2=2 43251  86.3962 108.1626 0002036  87.8603 272.2826 14.34220899245729
STATUS=0
